[{"OBJECT_NAME":"PIESAT-2 12","OBJECT_ID":"2024-241D","EPOCH":"2026-03-07T12:51:59.071104","MEAN_MOTION":15.13473962,"ECCENTRICITY":0.0001617,"INCLINATION":97.5188,"RA_OF_ASC_NODE":15.2831,"ARG_OF_PERICENTER":92.1579,"MEAN_ANOMALY":267.9837,"EPHEMERIS_TYPE":0,"CLASSIFICATION_TYPE":"U","NORAD_CAT_ID":62336,"ELEMENT_SET_NO":999,"REV_AT_EPOCH":6742,"BSTAR":0.00074906088,"MEAN_MOTION_DOT":0.00013349,"MEAN_MOTION_DDOT":0},{"OBJECT_NAME":"CZ-6A DEB","OBJECT_ID":"2022-151MM","EPOCH":"2026-03-09T16:36:35.308512","MEAN_MOTION":15.08432741,"ECCENTRICITY":0.0037582,"INCLINATION":98.6255,"RA_OF_ASC_NODE":147.7512,"ARG_OF_PERICENTER":182.2642,"MEAN_ANOMALY":177.8419,"EPHEMERIS_TYPE":0,"CLASSIFICATION_TYPE":"U","NORAD_CAT_ID":54585,"ELEMENT_SET_NO":999,"REV_AT_EPOCH":10505,"BSTAR":0.0062350664,"MEAN_MOTION_DOT":0.00099853,"MEAN_MOTION_DDOT":0}]
